TEVEL2-5                
1 63214U 25052E   26068.96660006  .00021339  00000+0  71765-3 0  9991
2 63214  97.4013 325.3677 0004700  95.3936 264.7842 15.30817434 54919
STARLINK-33787          
1 63519U 25071AC  26068.46548510  .00025900  00000+0  88384-3 0  9993
2 63519  53.1596 143.1949 0001252  63.8364 296.2765 15.30188521 52330
